GLOBALSTAR M001         
1 25162U 98008A   25102.23932514 -.00000047  00000+0  38014-3 0  9990
2 25162  52.0016 165.1715 0001832 119.4584 282.2153 12.38212264235659
GLOBALSTAR M004         
1 25163U 98008B   25102.19709947 -.00000088  00000+0  86074-4 0  9993
2 25163  51.9995 255.4711 0003746 137.4503  34.1279 12.63393461253447
GLOBALSTAR M002         
1 25164U 98008C   25101.90110324 -.00000066  00000+0  20991-3 0  9998
2 25164  52.0036  46.4011 0001719  30.3980 329.6939 11.61508926176366
GLOBALSTAR M003         
1 25165U 98008D   25101.91011803 -.00000077  00000+0  12888-3 0  9990
2 25165  52.0035 352.0806 0008180 155.3975 309.6050 12.12076284225186
GLOBALSTAR M014         
1 25306U 98023A   25101.90225892 -.00000052  00000+0  48001-3 0  9997
2 25306  51.9863 331.0228 0000464 191.6753 180.6402 11.65479269183446
GLOBALSTAR M006         
1 25307U 98023B   25101.75489823 -.00000051  00000+0  50750-3 0  9990
2 25307  51.9977  21.3812 0003464 352.6515  46.0648 11.58173982209136
GLOBALSTAR M008         
1 25309U 98023D   25102.18795078 -.00000093  00000+0  21865-4 0  9994
2 25309  51.9996  29.4009 0003099  42.0148 105.7405 12.36066134229999
