<?xml version="1.0" encoding="UTF-8"?>
<ndm xmlns:xsi="http://www.w3.org/2001/XMLSchema-instance" xsi:noNamespaceSchemaLocation="https://sanaregistry.org/r/ndmxml_unqualified/ndmxml-2.0.0-master-2.0.xsd">
<omm id="CCSDS_OMM_VERS" version="2.0">
<header><CREATION_DATE/><ORIGINATOR/></header><body><segment><metadata><OBJECT_NAME>GLOBALSTAR M001</OBJECT_NAME><OBJECT_ID>1998-008A</OBJECT_ID><CENTER_NAME>EARTH</CENTER_NAME><REF_FRAME>TEME</REF_FRAME><TIME_SYSTEM>UTC</TIME_SYSTEM><MEAN_ELEMENT_THEORY>SGP4</MEAN_ELEMENT_THEORY></metadata><data><meanElements><EPOCH>2025-04-12T05:44:37.692096</EPOCH><MEAN_MOTION>12.38212264</MEAN_MOTION><ECCENTRICITY>.0001832</ECCENTRICITY><INCLINATION>52.0016</INCLINATION><RA_OF_ASC_NODE>165.1715</RA_OF_ASC_NODE><ARG_OF_PERICENTER>119.4584</ARG_OF_PERICENTER><MEAN_ANOMALY>282.2153</MEAN_ANOMALY></meanElements><tleParameters><EPHEMERIS_TYPE>0</EPHEMERIS_TYPE><CLASSIFICATION_TYPE>U</CLASSIFICATION_TYPE><NORAD_CAT_ID>25162</NORAD_CAT_ID><ELEMENT_SET_NO>999</ELEMENT_SET_NO><REV_AT_EPOCH>23565</REV_AT_EPOCH><BSTAR>.38014E-3</BSTAR><MEAN_MOTION_DOT>-.47E-6</MEAN_MOTION_DOT><MEAN_MOTION_DDOT>0</MEAN_MOTION_DDOT></tleParameters></data></segment></body></omm>
<omm id="CCSDS_OMM_VERS" version="2.0">
<header><CREATION_DATE/><ORIGINATOR/></header><body><segment><metadata><OBJECT_NAME>GLOBALSTAR M004</OBJECT_NAME><OBJECT_ID>1998-008B</OBJECT_ID><CENTER_NAME>EARTH</CENTER_NAME><REF_FRAME>TEME</REF_FRAME><TIME_SYSTEM>UTC</TIME_SYSTEM><MEAN_ELEMENT_THEORY>SGP4</MEAN_ELEMENT_THEORY></metadata><data><meanElements><EPOCH>2025-04-12T04:43:49.394208</EPOCH><MEAN_MOTION>12.63393461</MEAN_MOTION><ECCENTRICITY>.0003746</ECCENTRICITY><INCLINATION>51.9995</INCLINATION><RA_OF_ASC_NODE>255.4711</RA_OF_ASC_NODE><ARG_OF_PERICENTER>137.4503</ARG_OF_PERICENTER><MEAN_ANOMALY>34.1279</MEAN_ANOMALY></meanElements><tleParameters><EPHEMERIS_TYPE>0</EPHEMERIS_TYPE><CLASSIFICATION_TYPE>U</CLASSIFICATION_TYPE><NORAD_CAT_ID>25163</NORAD_CAT_ID><ELEMENT_SET_NO>999</ELEMENT_SET_NO><REV_AT_EPOCH>25344</REV_AT_EPOCH><BSTAR>.86074E-4</BSTAR><MEAN_MOTION_DOT>-.88E-6</MEAN_MOTION_DOT><MEAN_MOTION_DDOT>0</MEAN_MOTION_DDOT></tleParameters></data></segment></body></omm>
<omm id="CCSDS_OMM_VERS" version="2.0">
<header><CREATION_DATE/><ORIGINATOR/></header><body><segment><metadata><OBJECT_NAME>GLOBALSTAR M002</OBJECT_NAME><OBJECT_ID>1998-008C</OBJECT_ID><CENTER_NAME>EARTH</CENTER_NAME><REF_FRAME>TEME</REF_FRAME><TIME_SYSTEM>UTC</TIME_SYSTEM><MEAN_ELEMENT_THEORY>SGP4</MEAN_ELEMENT_THEORY></metadata><data><meanElements><EPOCH>2025-04-11T21:37:35.319936</EPOCH><MEAN_MOTION>11.61508926</MEAN_MOTION><ECCENTRICITY>.0001719</ECCENTRICITY><INCLINATION>52.0036</INCLINATION><RA_OF_ASC_NODE>46.4011</RA_OF_ASC_NODE><ARG_OF_PERICENTER>30.3980</ARG_OF_PERICENTER><MEAN_ANOMALY>329.6939</MEAN_ANOMALY></meanElements><tleParameters><EPHEMERIS_TYPE>0</EPHEMERIS_TYPE><CLASSIFICATION_TYPE>U</CLASSIFICATION_TYPE><NORAD_CAT_ID>25164</NORAD_CAT_ID><ELEMENT_SET_NO>999</ELEMENT_SET_NO><REV_AT_EPOCH>17636</REV_AT_EPOCH><BSTAR>.20991E-3</BSTAR><MEAN_MOTION_DOT>-.66E-6</MEAN_MOTION_DOT><MEAN_MOTION_DDOT>0</MEAN_MOTION_DDOT></tleParameters></data></segment></body></omm>
<omm id="CCSDS_OMM_VERS" version="2.0">
<header><CREATION_DATE/><ORIGINATOR/></header><body><segment><metadata><OBJECT_NAME>GLOBALSTAR M003</OBJECT_NAME><OBJECT_ID>1998-008D</OBJECT_ID><CENTER_NAME>EARTH</CENTER_NAME><REF_FRAME>TEME</REF_FRAME><TIME_SYSTEM>UTC</TIME_SYSTEM><MEAN_ELEMENT_THEORY>SGP4</MEAN_ELEMENT_THEORY></metadata><data><meanElements><EPOCH>2025-04-11T21:50:34.197792</EPOCH><MEAN_MOTION>12.12076284</MEAN_MOTION><ECCENTRICITY>.000818</ECCENTRICITY><INCLINATION>52.0035</INCLINATION><RA_OF_ASC_NODE>352.0806</RA_OF_ASC_NODE><ARG_OF_PERICENTER>155.3975</ARG_OF_PERICENTER><MEAN_ANOMALY>309.6050</MEAN_ANOMALY></meanElements><tleParameters><EPHEMERIS_TYPE>0</EPHEMERIS_TYPE><CLASSIFICATION_TYPE>U</CLASSIFICATION_TYPE><NORAD_CAT_ID>25165</NORAD_CAT_ID><ELEMENT_SET_NO>999</ELEMENT_SET_NO><REV_AT_EPOCH>22518</REV_AT_EPOCH><BSTAR>.12888E-3</BSTAR><MEAN_MOTION_DOT>-.77E-6</MEAN_MOTION_DOT><MEAN_MOTION_DDOT>0</MEAN_MOTION_DDOT></tleParameters></data></segment></body></omm>
<omm id="CCSDS_OMM_VERS" version="2.0">
<header><CREATION_DATE/><ORIGINATOR/></header><body><segment><metadata><OBJECT_NAME>GLOBALSTAR M014</OBJECT_NAME><OBJECT_ID>1998-023A</OBJECT_ID><CENTER_NAME>EARTH</CENTER_NAME><REF_FRAME>TEME</REF_FRAME><TIME_SYSTEM>UTC</TIME_SYSTEM><MEAN_ELEMENT_THEORY>SGP4</MEAN_ELEMENT_THEORY></metadata><data><meanElements><EPOCH>2025-04-11T21:39:15.170688</EPOCH><MEAN_MOTION>11.65479269</MEAN_MOTION><ECCENTRICITY>.0000464</ECCENTRICITY><INCLINATION>51.9863</INCLINATION><RA_OF_ASC_NODE>331.0228</RA_OF_ASC_NODE><ARG_OF_PERICENTER>191.6753</ARG_OF_PERICENTER><MEAN_ANOMALY>180.6402</MEAN_ANOMALY></meanElements><tleParameters><EPHEMERIS_TYPE>0</EPHEMERIS_TYPE><CLASSIFICATION_TYPE>U</CLASSIFICATION_TYPE><NORAD_CAT_ID>25306</NORAD_CAT_ID><ELEMENT_SET_NO>999</ELEMENT_SET_NO><REV_AT_EPOCH>18344</REV_AT_EPOCH><BSTAR>.48001E-3</BSTAR><MEAN_MOTION_DOT>-.52E-6</MEAN_MOTION_DOT><MEAN_MOTION_DDOT>0</MEAN_MOTION_DDOT></tleParameters></data></segment></body></omm>
<omm id="CCSDS_OMM_VERS" version="2.0">
<header><CREATION_DATE/><ORIGINATOR/></header><body><segment><metadata><OBJECT_NAME>GLOBALSTAR M006</OBJECT_NAME><OBJECT_ID>1998-023B</OBJECT_ID><CENTER_NAME>EARTH</CENTER_NAME><REF_FRAME>TEME</REF_FRAME><TIME_SYSTEM>UTC</TIME_SYSTEM><MEAN_ELEMENT_THEORY>SGP4</MEAN_ELEMENT_THEORY></metadata><data><meanElements><EPOCH>2025-04-11T18:07:03.207072</EPOCH><MEAN_MOTION>11.58173982</MEAN_MOTION><ECCENTRICITY>.0003464</ECCENTRICITY><INCLINATION>51.9977</INCLINATION><RA_OF_ASC_NODE>21.3812</RA_OF_ASC_NODE><ARG_OF_PERICENTER>352.6515</ARG_OF_PERICENTER><MEAN_ANOMALY>46.0648</MEAN_ANOMALY></meanElements><tleParameters><EPHEMERIS_TYPE>0</EPHEMERIS_TYPE><CLASSIFICATION_TYPE>U</CLASSIFICATION_TYPE><NORAD_CAT_ID>25307</NORAD_CAT_ID><ELEMENT_SET_NO>999</ELEMENT_SET_NO><REV_AT_EPOCH>20913</REV_AT_EPOCH><BSTAR>.5075E-3</BSTAR><MEAN_MOTION_DOT>-.51E-6</MEAN_MOTION_DOT><MEAN_MOTION_DDOT>0</MEAN_MOTION_DDOT></tleParameters></data></segment></body></omm>
<omm id="CCSDS_OMM_VERS" version="2.0">
<header><CREATION_DATE/><ORIGINATOR/></header><body><segment><metadata><OBJECT_NAME>GLOBALSTAR M008</OBJECT_NAME><OBJECT_ID>1998-023D</OBJECT_ID><CENTER_NAME>EARTH</CENTER_NAME><REF_FRAME>TEME</REF_FRAME><TIME_SYSTEM>UTC</TIME_SYSTEM><MEAN_ELEMENT_THEORY>SGP4</MEAN_ELEMENT_THEORY></metadata><data><meanElements><EPOCH>2025-04-12T04:30:38.947392</EPOCH><MEAN_MOTION>12.36066134</MEAN_MOTION><ECCENTRICITY>.0003099</ECCENTRICITY><INCLINATION>51.9996</INCLINATION><RA_OF_ASC_NODE>29.4009</RA_OF_ASC_NODE><ARG_OF_PERICENTER>42.0148</ARG_OF_PERICENTER><MEAN_ANOMALY>105.7405</MEAN_ANOMALY></meanElements><tleParameters><EPHEMERIS_TYPE>0</EPHEMERIS_TYPE><CLASSIFICATION_TYPE>U</CLASSIFICATION_TYPE><NORAD_CAT_ID>25309</NORAD_CAT_ID><ELEMENT_SET_NO>999</ELEMENT_SET_NO><REV_AT_EPOCH>22999</REV_AT_EPOCH><BSTAR>.21865E-4</BSTAR><MEAN_MOTION_DOT>-.93E-6</MEAN_MOTION_DOT><MEAN_MOTION_DDOT>0</MEAN_MOTION_DDOT></tleParameters></data></segment></body></omm>

</ndm>
